ONEWEB-0549             
1 56051U 23043F   25202.82594293  .00001903  00000+0  45742-2 0  9998
2 56051  87.9276 309.8929 0002169  90.5729 269.5654 13.21843842114580
ONEWEB-0550             
1 56052U 23043G   25202.81336121  .00000051  00000+0  93050-4 0  9992
2 56052  87.9276 309.8888 0001955 104.8690 255.2661 13.21824718114584
ONEWEB-0551             
1 56053U 23043H   25202.83824304 -.00000250  00000+0 -69910-3 0  9990
2 56053  87.9079 325.1093 0002085  94.3732 265.7637 13.15547840112960
ONEWEB-0552             
1 56054U 23043J   25202.80705726 -.00000006  00000+0 -46157-4 0  9992
2 56054  87.9277 309.8991 0002246  97.3289 262.8100 13.21825878114586
ONEWEB-0553             
1 56055U 23043K   25202.74714846 -.00000073  00000+0 -22441-3 0  9992
2 56055  87.9054 294.6396 0001670 107.4290 252.7023 13.16595460115493
ONEWEB-0554             
1 56056U 23043L   25202.81048498 -.00000108  00000+0 -31541-3 0  9994
2 56056  87.9050 294.6543 0002118 107.4957 252.6406 13.16594663115489
ONEWEB-0555             
1 56057U 23043M   25202.77247358 -.00000146  00000+0 -41677-3 0  9999
2 56057  87.9055 294.6290 0001494 110.4057 249.7235 13.16594117115486
ONEWEB-0557             
1 56058U 23043N   25202.78671996  .00000106  00000+0  24351-3 0  9994
2 56058  87.9050 294.6476 0002164 136.8371 223.2930 13.16592538115488
